#dP2021  6  8  6  0  0.00000000      96 __u+U ITR00 EXT  IAC
## 2161 194400.00000000   900.00000000 59373 0.2500000000000
+  116   C06C07C08C09C10C11C12C13C14C16C19C20C21C22C23C24C25
+        C26C27C28C29C30C32C33C34C35C36C37C38C39C40C41C42C43
+        C44C45C46E01E02E03E04E05E07E08E09E11E12E13E14E15E18
+        E19E21E24E25E26E27E30E31E33E36G01G02G03G04G05G06G07
+        G08G09G10G12G13G14G15G16G17G18G19G20G21G22G23G24G25
+        G26G27G28G29G30G31G32J01J02J03R01R02R03R04R05R07R08
+        R09R11R12R13R14R15R16R17R18R19R20R21R22R24  0  0  0
++        11  9 11  9  7  8  8 16  8 10  9  8  8  9  8  9  8
++        10  8  8  9  9  7  8  7  9 10  8 11 10 11  9  8 10
++        11  9 10  9  9  8  9  8  8  9  9  9  9 10  9  8  8
++         8  9  9 10  8  9  8  9  7  8  7  8  8  7  8  7  8
++         8  8  8  9  9  8  8  8  8  7  7  8  8  8  9  8  7
++         8  7  6  9  8  8  8  9 10 10  8  8  8  7  9  8  8
++        11  8  9  8  7  9 10  8  8  9  9  9  9  7  0  0  0
%c M  cc GPS ccc cccc cccc cccc cccc ccccc ccccc ccccc ccccc
%c cc cc ccc ccc cccc cccc cccc cccc ccccc ccccc ccccc ccccc
%f  0.0000000  0.000000000  0.00000000000  0.000000000000000
%f  0.0000000  0.000000000  0.00000000000  0.000000000000000
%i    0    0    0    0      0      0      0      0         0
%i    0    0    0    0      0      0      0      0         0
/* IAC                                ULTRA-RAPID PREDICTION
/* S/V CLOCKS ARE ALIGNED TO GNSS TIME                      
/* G:C1WC2W R:C1PC2P E:C1XC5X C:C2IC6I J:C1CC2S             
/* PCV:IGS14_2148 OL/AL:FES2004  NONE     YN ORB:CoN CLK:CoN
*  2021 06 08 16  0  0.00000000
PC06  -8557.502332  24973.990700  33449.271872    479.336541
PC07 -24255.875126  28160.468775 -20143.464674     95.061006
PC08 -13401.050084  38423.004819 -10206.145154   -893.165121
PC09   5708.636077  32634.980036  26641.781280    463.293472
PC10      0.000000      0.000000      0.000000    -32.336484
PC11  21001.129443  16985.187612   6986.758737    388.020823
PC12  11382.774524  23135.950125 -10621.144977    851.741408
PC13  -5786.481598  41591.261276   1912.449820    292.247542
PC14  21792.180608   6521.346770  16152.234318    922.683225
PC16  -5391.103984  26074.524681  32873.741384   -886.402309
PC19 -26708.458889    413.817316  -8089.330192    865.030653
PC20 -15056.863490 -11188.613674 -20651.745585   -884.213493
PC21  -6318.289995  16692.384975  21480.781331   -936.310599
PC22 -23290.154368  12091.656441   9550.729686   -951.149402
PC23  16010.708071 -18454.274152 -13474.085422   -929.496200
PC24   7037.379737  20168.857494 -17950.198453   -884.330231
PC25  16641.197575     20.750318 -22406.374337   -904.142216
PC26  -4996.885397  27152.497299  -3952.306756    895.574288
PC27  -2871.982986 -21455.204359  17578.927082    545.015142
PC28  13466.313469  -8633.419780  22863.875981    -64.721336
PC29 -22204.430473  -8373.046586 -14692.796749    403.368212
PC30 -17961.543004 -21188.847785   2541.474761    469.961453
PC32   6172.469518 -16728.220046 -21442.900166   -926.358490
PC33  26658.778347   -447.930566   8208.650809   -936.610021
PC34  18324.508334  20985.259635  -1835.451339   -654.992522
PC35 -13460.966416   8853.827101 -22792.224062   -242.725621
PC36 -16547.543079   -846.641019  22482.358516   -727.119150
PC37   6235.141580 -27032.917432   3103.820356   -878.349083
PC38 -11609.117819  39862.050019  -6855.418467    153.981992
PC39  -1882.611105  27134.716349  32270.155216     31.652975
PC40 -17273.194039  24675.290998 -29543.902058    169.006672
PC41  23443.735601 -11986.999799  -9190.652186   -946.506891
PC42  14265.702644  11673.174128  20992.571275   -913.450615
PC43  22295.304715   8933.073689  14216.837177   -767.252067
PC44   3345.467208  21373.259836 -17658.537581    229.287647
PC45 -15876.767762  18595.811774  13442.575933    461.861815
PC46  -7644.245865 -19368.241856  18602.370356    233.596918
PE01  17092.718527   5339.347204 -23567.842998  -1125.004969
PE02 -17171.948336  -5226.947939  23533.845784    224.710347
PE03 -26958.872303 -11014.827621  -5341.019044   -439.768814
PE04  26655.612397  -2249.092017 -12656.623119   -788.157963
PE05 -11417.527016 -18030.573482 -20504.232958   -274.543826
PE07 -10613.497439  14463.736784  23558.287116   -547.463703
PE08 -26481.874248   2552.563428  13000.012018   5989.203404
PE09  10290.373692 -14451.990369 -23681.228344   5640.434740
PE11   4870.377729 -23739.185062  16971.210821   5876.716336
PE12  15530.372773  -4572.084850  24774.846814   5170.173080
PE13  -5031.325769  23470.604416 -17326.935113    417.479732
PE14  16308.964447  19748.670745 -11339.445709  -1459.187295
PE15 -15422.614717   4673.764121 -24827.996420    809.902681
PE18 -26908.379183 -11981.243137  -3723.997113  -1598.027153
PE19  25884.710588  12255.468036   7491.924298    297.234534
PE21   1010.208398  19906.977248 -21884.205020   -669.531997
PE24  17002.007932 -23308.854606   6648.347383   -943.945171
PE25   -821.954464 -20014.131588  21798.204647   -536.317343
PE26   8679.729547  28274.891609   1184.611075   1716.560817
PE27 -16309.216948  23546.808810  -7455.020235    -49.944143
PE30 -24005.137751  12406.423673  12066.049207   2879.806444
PE31  23915.306109 -13330.250432 -11239.589457   -482.002295
PE33  16714.575763  16848.725201  17695.728910   -469.462066
PE36  -8300.033481 -28404.777290   -363.136655   -218.196802
PG01  13374.977466  -8529.770600  20969.395114    664.680759
PG02 -13285.259629 -16536.688700 -15298.580879   -610.802726
PG03  23149.366575 -11968.288547   4711.985578   -186.380105
PG04  20406.822890  -2662.708486 -16814.942203   -199.226857
PG05 -20892.240904    893.135470 -16641.803161    -44.353639
PG06  -6710.308817 -24602.767469  -7262.256835     24.550816
PG07   7517.066793 -21642.587132 -12643.789669    172.970484
PG08  24798.978701   4673.645852   8752.359097    -24.311622
PG09  10763.307822 -11741.981306 -21316.050643   -350.073350
PG10  -3696.963524  18305.180648  18896.141503   -138.310556
PG12 -23980.613341   9428.635086   5882.995063    -52.223801
PG13 -23032.009976 -13169.406931   2224.459577    142.305290
PG14   4707.351770 -18361.546385  18582.786502     72.848567
PG15 -25197.541812  -2003.887170   8343.540171   -143.784671
PG16  17858.947474   5098.258574 -19404.564598   -338.088051
PG17  -4606.560031 -17635.175055  19744.134157    455.289112
PG18  -5723.275496  23792.797619 -10249.062767    347.628518
PG19 -13354.854970 -18627.905889  13240.572991     10.729087
PG20 -20700.597780   3035.374383 -16179.380877    521.363829
PG21  15766.135842    140.341432  22112.791723    123.687016
PG22  22111.744239  -5461.711161  13688.060741   -593.619514
PG23 -14324.423612  19583.968058  10722.153406     98.980029
PG24 -15328.359216   3224.484095  21191.374075    122.361641
PG25 -19162.495044  17533.379611  -5077.339388    152.209776
PG26   9671.641714  12304.008137 -21517.962274     95.814867
PG27  23541.762285  12618.905179  -1846.930418   -143.824019
PG28  -1251.366417 -16161.173404  21624.370211    557.983271
PG29 -11986.090772   9754.444942 -21658.524635   -360.789887
PG30   -748.986697 -26402.828666   -878.335016   -436.477041
PG31   8393.192996  22835.529413 -10169.408348   -121.923391
PG32   8237.091400  17887.109447  18016.658381     19.150680
PJ01 -31229.055412  23145.054758  21433.803760   -392.265262
PJ02 -33995.985007  24877.196541   7728.542369     -0.174729
PJ03 -21421.237605  20361.581977 -25477.709766     -7.537235
PR01 -13239.214095  10103.394108  19334.323666     80.589320
PR02   9297.544764   9938.264917  21632.820777    481.649752
PR03  23287.374339   3812.207649   9797.401583     37.343759
PR04  24021.046250  -4300.421810  -7401.864641     90.402603
PR05  11452.489487  -9974.186146 -20484.143249     73.208956
PR07 -23550.479014  -3476.580204  -9064.059973    -42.380028
PR08 -23947.703402   4464.409725   7595.628647    -59.412448
PR09   -206.207822 -18524.032135  17515.746493     -3.082138
PR11 -15078.201972  13564.128054  15491.573360    -10.337192
PR12 -11068.066913  22907.698096  -1699.472290    235.539087
PR13   -470.996532  18914.313863 -17124.509515    -55.961928
PR14  10751.438864   3250.428943 -22888.233094     65.134439
PR15  15341.913658 -13746.609271 -15020.745592    103.374897
PR16  10035.129369 -23358.982475   2765.669080    -16.101564
PR17  16158.795419  15115.775987  12661.114447    430.937942
PR18  11936.351524     89.562624  22558.272407     79.351308
PR19   2333.591874 -14464.695130  20874.042972   -146.951505
PR20 -10411.554377 -22669.405812   5218.126878    -50.529414
PR21 -16069.706413 -14320.452158 -13714.548451   -215.048674
PR22 -11318.254916    999.911205 -22846.634126   -116.685136
PR24  11076.518803  22537.117246  -4436.395308     45.753270
EOF
